LEMUR-2-GREENBERG       
1 42837U 17042N   26068.46200528  .00019778  00000+0  72539-3 0  9997
2 42837  97.3781 249.8007 0009157   4.0119 356.1192 15.27971352473146
STARLINK-33645          
1 63412U 25065P   26068.50468627  .00031276  00000+0  11408-2 0  9998
2 63412  43.0048 111.3358 0002331 259.2184 100.8405 15.27593340 52777
